NORAD_CAT_ID,OBJECT_NAME,OBJECT_TYPE,EPOCH,MEAN_MOTION,ECCENTRICITY,INCLINATION,RA_OF_ASC_NODE,ARG_OF_PERICENTER,MEAN_ANOMALY,BSTAR,MEAN_MOTION_DOT,MEAN_MOTION_DDOT,TLE_LINE0,TLE_LINE1,TLE_LINE2,SEMIMAJOR_AXIS,PERIOD,APOGEE,PERIGEE,DECAYED
52478.0,STARLINK-3825,PAYLOAD,2023-10-28 23:41:54,15.08840016,0.0001437,53.2175,331.9398,84.8041,275.3115,2.6575e-05,1.35e-06,0.0,0 STARLINK-3825,1 52478U 22049AD  23301.98743342  .00000135  00000-0  26575-4 0  9990,2 52478  53.2175 331.9398 0001437  84.8041 275.3115 15.08840016 82172,6917.88,95.438,540.739,538.751,0.0
52478.0,STARLINK-3825,PAYLOAD,2023-10-29 09:14:12,15.08852986,0.0001547,53.2169,330.1584,92.2023,267.9146,0.00026727,3.97e-05,0.0,0 STARLINK-3825,1 52478U 22049AD  23302.38486528  .00003970  00000-0  26727-3 0  9993,2 52478  53.2169 330.1584 0001547  92.2023 267.9146 15.08852986 82235,6917.841,95.437,540.776,538.636,0.0
52478.0,STARLINK-3825,PAYLOAD,2023-10-29 18:46:31,15.08845011,0.0001496,53.2174,328.3741,94.814,265.3023,7.9549e-05,9.78e-06,0.0,0 STARLINK-3825,1 52478U 22049AD  23302.78230675  .00000978  00000-0  79549-4 0  9993,2 52478  53.2174 328.3741 0001496  94.8140 265.3023 15.08845011 82299,6917.865,95.437,540.765,538.695,0.0
52478.0,STARLINK-3825,PAYLOAD,2023-10-30 01:08:04,15.08837332,0.0001761,53.218,327.1875,98.3187,261.8004,0.00020707,3.009e-05,0.0,0 STARLINK-3825,1 52478U 22049AD  23303.04727500  .00003009  00000-0  20707-3 0  9990,2 52478  53.2180 327.1875 0001761  98.3187 261.8004 15.08837332 82338,6917.889,95.438,540.972,538.535,0.0
52478.0,STARLINK-3825,PAYLOAD,2023-10-30 18:37:19,15.08839099,0.0001685,53.2164,323.914,88.5876,271.5309,8.9689e-05,1.14e-05,0.0,0 STARLINK-3825,1 52478U 22049AD  23303.77591588  .00001140  00000-0  89689-4 0  9994,2 52478  53.2164 323.9140 0001685  88.5876 271.5309 15.08839099 83520,6917.883,95.438,540.914,538.582,0.0
52478.0,STARLINK-3825,PAYLOAD,2023-10-31 00:58:51,15.0883568,0.0001966,53.2185,322.724,87.9619,272.1598,1.332e-05,-7.6e-07,0.0,0 STARLINK-3825,1 52478U 22049AD  23304.04087896 -.00000076  00000-0  13320-4 0  9994,2 52478  53.2185 322.7240 0001966  87.9619 272.1598 15.08835680 82484,6917.894,95.438,541.119,538.399,0.0
52478.0,STARLINK-3825,PAYLOAD,2023-10-31 08:55:47,15.08835282,0.0001967,53.2191,321.2372,94.6181,265.5035,-3.0734e-05,-7.77e-06,0.0,0 STARLINK-3825,1 52478U 22049AD  23304.37208122 -.00000777  00000-0 -30734-4 0  9994,2 52478  53.2191 321.2372 0001967  94.6181 265.5035 15.08835282 83617,6917.895,95.438,541.121,538.399,0.0
52478.0,STARLINK-3825,PAYLOAD,2023-10-31 18:28:06,15.08839352,0.0001897,53.2183,319.4526,87.1857,272.9352,2.6783e-07,-2.84e-06,0.0,0 STARLINK-3825,1 52478U 22049AD  23304.76952063 -.00000284  00000-0  26783-6 0  9990,2 52478  53.2183 319.4526 0001897  87.1857 272.9352 15.08839352 83679,6917.882,95.438,541.06,538.435,0.0
52478.0,STARLINK-3825,PAYLOAD,2023-11-01 07:11:11,15.08841615,0.0001934,53.2185,317.0741,85.8585,274.2628,0.00020661,3.002e-05,0.0,0 STARLINK-3825,1 52478U 22049AD  23305.29944228  .00003002  00000-0  20661-3 0  9999,2 52478  53.2185 317.0741 0001934  85.8585 274.2628 15.08841615 82674,6917.875,95.437,541.078,538.403,0.0
52478.0,STARLINK-3825,PAYLOAD,2023-11-01 18:18:53,15.08839257,0.0001886,53.2179,314.9923,85.6553,274.4654,0.00013088,1.795e-05,0.0,0 STARLINK-3825,1 52478U 22049AD  23305.76312412  .00001795  00000-0  13088-3 0  9997,2 52478  53.2179 314.9923 0001886  85.6553 274.4654 15.08839257 83822,6917.883,95.438,541.052,538.443,0.0
52478.0,STARLINK-3825,PAYLOAD,2023-11-02 10:12:44,15.08849203,0.0001765,53.2172,312.0172,89.7628,270.3567,0.00024892,3.677e-05,0.0,0 STARLINK-3825,1 52478U 22049AD  23306.42551896  .00003677  00000-0  24892-3 0  9998,2 52478  53.2172 312.0172 0001765  89.7628 270.3567 15.08849203 82845,6917.852,95.437,540.938,538.496,0.0
52478.0,STARLINK-3825,PAYLOAD,2023-11-02 18:09:40,15.08843559,0.0001777,53.2172,310.5285,93.4676,266.6519,0.00012359,1.68e-05,0.0,0 STARLINK-3825,1 52478U 22049AD  23306.75672090  .00001680  00000-0  12359-3 0  9991,2 52478  53.2172 310.5285 0001777  93.4676 266.6519 15.08843559 82899,6917.87,95.437,540.964,538.505,0.0
52478.0,STARLINK-3825,PAYLOAD,2023-11-03 06:52:45,15.08848574,0.0001783,53.2181,308.1513,98.4397,261.6797,0.0001243,1.691e-05,0.0,0 STARLINK-3825,1 52478U 22049AD  23307.28663793  .00001691  00000-0  12430-3 0  9992,2 52478  53.2181 308.1513 0001783  98.4397 261.6797 15.08848574 84053,6917.854,95.437,540.953,538.486,0.0
52478.0,STARLINK-3825,PAYLOAD,2023-11-04 05:08:10,15.08834256,0.0001696,53.2174,303.9866,103.9933,256.1247,7.4641e-07,-2.76e-06,0.0,0 STARLINK-3825,1 52478U 22049AD  23308.21400871 -.00000276  00000-0  74641-6 0  9996,2 52478  53.2174 303.9866 0001696 103.9933 256.1247 15.08834256 83117,6917.898,95.438,540.936,538.59,0.0
52478.0,STARLINK-3825,PAYLOAD,2023-11-04 09:54:19,15.08835856,0.0001489,53.2174,303.0949,91.2754,268.8409,5.8179e-05,6.38e-06,0.0,0 STARLINK-3825,1 52478U 22049AD  23308.41272865  .00000638  00000-0  58179-4 0  9995,2 52478  53.2174 303.0949 0001489  91.2754 268.8409 15.08835856 84220,6917.893,95.438,540.788,538.728,0.0
52478.0,STARLINK-3825,PAYLOAD,2023-11-04 16:15:52,15.08839007,0.0001467,53.2177,301.9063,92.2007,267.9153,0.0001409,1.955e-05,0.0,0 STARLINK-3825,1 52478U 22049AD  23308.67768863  .00001955  00000-0  14090-3 0  9997,2 52478  53.2177 301.9063 0001467  92.2007 267.9153 15.08839007 84267,6917.883,95.438,540.763,538.734,0.0
52478.0,STARLINK-3825,PAYLOAD,2023-11-05 04:58:56,15.088519,0.0001532,53.217,299.5272,102.2434,257.873,0.00042476,6.481e-05,0.0,0 STARLINK-3825,1 52478U 22049AD  23309.20760416  .00006481  00000-0  42476-3 0  9991,2 52478  53.2170 299.5272 0001532 102.2434 257.8730 15.08851900 83267,6917.844,95.437,540.769,538.649,0.0
52478.0,STARLINK-3825,PAYLOAD,2023-11-05 06:34:20,15.08858317,0.0001523,53.2172,299.2321,96.8203,263.2963,0.0005921,9.153e-05,0.0,0 STARLINK-3825,1 52478U 22049AD  23309.27384306  .00009153  00000-0  59210-3 0  9991,2 52478  53.2172 299.2321 0001523  96.8203 263.2963 15.08858317 84352,6917.824,95.436,540.743,538.636,0.0
52478.0,STARLINK-3825,PAYLOAD,2023-11-05 16:06:38,15.08854773,0.0001362,53.2166,297.4468,86.5866,273.5282,0.00050241,7.72e-05,0.0,0 STARLINK-3825,1 52478U 22049AD  23309.67128273  .00007720  00000-0  50241-3 0  9997,2 52478  53.2166 297.4468 0001362  86.5866 273.5282 15.08854773 84416,6917.835,95.437,540.642,538.758,0.0
52478.0,STARLINK-3825,PAYLOAD,2023-11-06 09:35:51,15.08878671,0.0001456,53.217,294.175,85.6049,274.511,0.00066206,0.00010275,0.0,0 STARLINK-3825,1 52478U 22049AD  23310.39990560  .00010275  00000-0  66206-3 0  9991,2 52478  53.2170 294.1750 0001456  85.6049 274.5110 15.08878671 83442,6917.762,95.435,540.634,538.62,0.0
52478.0,STARLINK-3825,PAYLOAD,2023-11-06 15:57:26,15.08820864,0.0003093,53.2177,292.9855,89.1155,271.0192,-0.00045339,-7.494e-05,0.0,0 STARLINK-3825,1 52478U 22049AD  23310.66489238 -.00007494  00000-0 -45339-3 0  9991,2 52478  53.2177 292.9855 0003093  89.1155 271.0192 15.08820864 83484,6917.939,95.439,541.944,537.664,0.0
52478.0,STARLINK-3825,PAYLOAD,2023-11-07 07:51:18,15.08809647,0.0001498,53.2176,290.0106,91.2811,268.8352,-0.00047498,-7.833e-05,0.0,0 STARLINK-3825,1 52478U 22049AD  23311.32730109 -.00007833  00000-0 -47498-3 0  9996,2 52478  53.2176 290.0106 0001498  91.2811 268.8352 15.08809647 84660,6917.973,95.439,540.874,538.802,0.0
52478.0,STARLINK-3825,PAYLOAD,2023-11-07 15:48:14,15.08817677,0.0001305,53.2166,288.5263,109.043,251.0704,-9.4384e-05,-1.789e-05,0.0,0 STARLINK-3825,1 52478U 22049AD  23311.65850097 -.00001789  00000-0 -94384-4 0  9992,2 52478  53.2166 288.5263 0001305 109.0430 251.0704 15.08817677 83630,6917.949,95.439,540.716,538.911,0.0
52478.0,STARLINK-3825,PAYLOAD,2023-11-08 04:31:19,15.08832696,9.72e-05,53.2184,286.1481,117.2462,242.8629,0.00041679,6.35e-05,0.0,0 STARLINK-3825,1 52478U 22049AD  23312.18842250  .00006350  00000-0  41679-3 0  9998,2 52478  53.2184 286.1481 0000972 117.2462 242.8629 15.08832696 83712,6917.903,95.438,540.44,539.095,0.0
52478.0,STARLINK-3825,PAYLOAD,2023-11-08 07:42:05,15.08849579,0.0001256,53.2162,285.5513,114.9167,245.1956,0.0012774,0.00020106,0.0,0 STARLINK-3825,1 52478U 22049AD  23312.32090256  .00020106  00000-0  12774-2 0  9993,2 52478  53.2162 285.5513 0001256 114.9167 245.1956 15.08849579 83738,6917.851,95.437,540.585,538.847,0.0
52478.0,STARLINK-3825,PAYLOAD,2023-11-08 15:39:01,15.0885401,7.53e-05,53.217,284.067,121.8238,238.2828,0.00076398,0.00011896,0.0,0 STARLINK-3825,1 52478U 22049AD  23312.65209899  .00011896  00000-0  76398-3 0  9993,2 52478  53.2170 284.0670 0000753 121.8238 238.2828 15.08854010 84864,6917.838,95.437,540.223,539.182,0.0
52478.0,STARLINK-3825,PAYLOAD,2023-11-09 04:22:05,15.08867627,8.94e-05,53.2167,281.6872,111.1559,248.9529,0.00068706,0.00010672,0.0,0 STARLINK-3825,1 52478U 22049AD  23313.18201112  .00010672  00000-0  68706-3 0  9997,2 52478  53.2167 281.6872 0000894 111.1559 248.9529 15.08867627 83864,6917.796,95.436,540.279,539.042,0.0
52478.0,STARLINK-3825,PAYLOAD,2023-11-09 07:32:51,15.08886917,0.0001337,53.216,281.0902,114.6826,245.4305,0.0013098,0.00020646,0.0,0 STARLINK-3825,1 52478U 22049AD  23313.31448608  .00020646  00000-0  13098-2 0  9990,2 52478  53.2160 281.0902 0001337 114.6826 245.4305 15.08886917 83882,6917.737,95.435,540.527,538.677,0.0
52478.0,STARLINK-3825,PAYLOAD,2023-11-10 04:12:52,15.08856708,0.0001269,53.2155,277.2276,80.9246,279.1889,0.0015389,0.000243,0.0,0 STARLINK-3825,1 52478U 22049AD  23314.17560891  .00024300  00000-0  15389-2 0  9990,2 52478  53.2155 277.2276 0001269  80.9246 279.1889 15.08856708 84014,6917.829,95.436,540.572,538.816,0.0
52478.0,STARLINK-3825,PAYLOAD,2023-11-11 04:03:39,15.08851488,0.0001456,53.217,272.7638,88.6412,271.4747,0.00093577,0.00014641,0.0,0 STARLINK-3825,1 52478U 22049AD  23315.16920934  .00014641  00000-0  93577-3 0  9991,2 52478  53.2170 272.7638 0001456  88.6412 271.4747 15.08851488 84165,6917.845,95.437,540.718,538.703,0.0
